#aV2014  9 30  0  0  0.00000000     288 DD+AD WGS84 FIT  NGA
## 1812 172800.00000000   300.00000000 56930 0.0000000000000
+   31     1  2  4  5  6  7  8  9 10 11 12 13 14 15 16 17 18
+         19 20 21 22 23 24 25 26 27 28 29 30 31 32  0  0  0
+          0  0  0  0  0  0  0  0  0  0  0  0  0  0  0  0  0
+          0  0  0  0  0  0  0  0  0  0  0  0  0  0  0  0  0
+          0  0  0  0  0  0  0  0  0  0  0  0  0  0  0  0  0
++         2  2  2  2  2  2  2  2  2  2  2  2  2  2  2  2  2
++         2  2  2  2  2  2  2  2  2  2  2  2  2  2  0  0  0
++         0  0  0  0  0  0  0  0  0  0  0  0  0  0  0  0  0
++         0  0  0  0  0  0  0  0  0  0  0  0  0  0  0  0  0
++         0  0  0  0  0  0  0  0  0  0  0  0  0  0  0  0  0
%c cc cc ccc ccc cccc cccc cccc cccc ccccc ccccc ccccc ccccc
%c cc cc ccc ccc cccc cccc cccc cccc ccccc ccccc ccccc ccccc
%f  0.0000000  0.000000000  0.00000000000  0.000000000000000
%f  0.0000000  0.000000000  0.00000000000  0.000000000000000
%i    0    0    0    0      0      0      0      0         0
%i    0    0    0    0      0      0      0      0         0
/*      NGA, ST. LOUIS,MO.                                  
/*   EPHEMERIS COMPUTED FROM  1 DAYS OF DATA                
/*   EPOCHA SMOOTHER                                       
/* CCCCCCCCCCCCCCCCCCCCCCCCCCCCCCCCCCCCCCCCCCCCCCCCCCCCCCCCC
*  2014  9 30 13 20  0.00000000
P  1  13550.642445 -21662.252107   6901.303810     21.895400                    
V  1   -589.895194   9275.814020  30218.734228      0.004985                    
P  2 -15922.719710   -678.024391 -20875.872748    521.442363                    
V  2   8221.066127 -26133.922357  -5821.304784      0.022245                    
P  4  11219.634889 -23638.176375   3231.465313     -1.149006                    
V  4   1944.139275   5556.141303  31072.573746     -0.003779                    
P  5 -26308.567650   1405.274796  -4091.922667   -334.397125                    
V  5   4557.657814  -3837.377508 -30771.938032      0.039448                    
P  6  -9879.261578 -13999.167640 -20312.582655     -3.075552                    
V  6  10031.152283 -23742.692821  11477.989654      0.017986                    
P  7   5855.523832 -25035.334547   5947.360504    397.254991                    
V  7   5285.202960  -5942.879032 -31035.064314      0.040754                    
P  8  12289.928370 -23129.450194     77.870984     15.705857                    
V  8   1922.032048   1182.591670 -32958.426649      0.001400                    
P  9  -2502.838171 -20919.828908 -16158.753832     15.667513                    
V  9  14515.721827  14656.537831 -21231.037644     -0.036451                    
P 10 -17335.583414 -10458.114324 -17759.419422   -143.904048                    
V 10  21271.656964  -4823.979344 -17866.728557     -0.013927                    
P 11  12569.804684 -17626.503163  14760.819843   -525.164323                    
V 11   2980.064969  20070.530747  20887.114461     -0.028741                    
P 12 -21433.004446  10293.165096 -11685.818495    235.583014                    
V 12 -14861.189427    -21.014158  27624.294081      0.026681                    
P 13  -3262.659110 -22385.234365 -13968.802848    -46.559738                    
V 13  11082.279944  13661.647608 -24913.148003     -0.036208                    
P 14  14451.632844  22356.158842   1337.519099    129.934543                    
V 14  -2799.988913    236.022763  31769.897032     -0.036710                    
P 15 -13866.649080   7914.782062  21190.734709   -205.873285                    
V 15 -17749.060092 -20505.020786  -3639.625751     -0.022264                    
P 16  26457.269768     20.570415  -4037.191531   -191.378903                    
V 16  -4807.320946   2064.907150 -31600.962632      0.026133                    
P 17 -14619.499855 -22233.828729   2283.826250   -127.520643                    
V 17   3386.097076    664.133876  31626.329249     -0.026049                    
P 18    486.948673  16278.108396  21429.032494    348.251563                    
V 18 -25987.886282   4072.520194  -2880.161437      0.025507                    
P 19  16051.344016  -2049.812698  20977.436747   -481.234621                    
V 19  14537.378941  22654.571474  -8403.792312     -0.018427                    
P 20  16075.665541 -15160.164154 -14882.546010    239.841695                    
V 20  18832.235552  -1490.767486  22220.224479      0.043653                    
P 21   -147.362073  24192.970769  11105.072257   -386.835084                    
V 21  -7749.571365  11374.230187 -26876.786265     -0.020594                    
P 22  14752.220865  11917.063707  18873.658008    272.603632                    
V 22 -22960.384633   5721.882575  14335.219475      0.035806                    
P 23   7629.454629 -14292.705338 -20845.445807    -56.260131                    
V 23  17592.812746  20352.675269  -7891.077595     -0.028650                    
P 24 -14863.387948  19364.568095  10318.918256    -36.025117                    
V 24   1988.690179 -13300.894656  27882.636263     -0.005975                    
P 25 -10365.847328  14944.887840 -19382.819342     19.946073                    
V 25 -24313.521618   2817.668623  15364.083759     -0.011898                    
P 26 -18492.805749  -6489.770155  17401.795847    -72.609894                    
V 26 -11623.213655 -20217.881665 -18908.878633     -0.129002                    
P 27  20162.333382   7536.768133  15589.170355     18.560600                    
V 27  11113.675532  16477.707951 -22250.057094      0.029882                    
P 28  -9499.245993 -13366.940969  21533.243110    387.985430                    
V 28  25672.458293  -2849.702282   9715.702961      0.027584                    
P 29    572.335669  20439.162468 -16945.153328    563.700039                    
V 29 -13983.916734 -16446.827345 -20240.842925      0.023778                    
P 30  -1752.594716 -21578.865748  15352.283973    -67.723957                    
V 30  10220.315812 -16763.787263 -22443.872172     -0.039945                    
P 31  10503.668071  11836.039163 -21121.140583    331.122298                    
V 31 -11172.627014  24803.983202   8587.978999     -0.004287                    
P 32  25290.153482  -5305.041165  -4672.911276   -328.388314                    
V 32   6334.521140   3153.979269  31059.518411      0.087090                    
EOF
